SEEDS II (CO-66)        
1 32791U 08021J   26068.92109284  .00023758  00000+0  84213-3 0  9995
2 32791  97.7519  62.3611 0001448 359.2618   0.8619 15.29097235972108
STARLINK-35915          
1 66521U 25265F   26068.95700509  .00029977  00000+0  10938-2 0  9993
2 66521  43.0036 276.4843 0002026 255.0616 105.0012 15.27599277 17154
