[{"OBJECT_NAME":"SEEDS II (CO-66)","OBJECT_ID":"2008-021J","EPOCH":"2026-03-09T22:06:22.421376","MEAN_MOTION":15.29097236,"ECCENTRICITY":0.00014475,"INCLINATION":97.7519,"RA_OF_ASC_NODE":62.3611,"ARG_OF_PERICENTER":359.2618,"MEAN_ANOMALY":0.8619,"EPHEMERIS_TYPE":0,"CLASSIFICATION_TYPE":"U","NORAD_CAT_ID":32791,"ELEMENT_SET_NO":999,"REV_AT_EPOCH":97210,"BSTAR":0.00084213052,"MEAN_MOTION_DOT":0.00023758,"MEAN_MOTION_DDOT":0},{"OBJECT_NAME":"STARLINK-35915","OBJECT_ID":"2025-265F","EPOCH":"2026-03-09T22:58:05.240640","MEAN_MOTION":15.27599277,"ECCENTRICITY":0.00020264,"INCLINATION":43.0036,"RA_OF_ASC_NODE":276.4843,"ARG_OF_PERICENTER":255.0616,"MEAN_ANOMALY":105.0012,"EPHEMERIS_TYPE":0,"CLASSIFICATION_TYPE":"U","NORAD_CAT_ID":66521,"ELEMENT_SET_NO":999,"REV_AT_EPOCH":1715,"BSTAR":0.0010937864,"MEAN_MOTION_DOT":0.00029977,"MEAN_MOTION_DDOT":0}]
